{
  "type": "FeatureCollection",
  "generator": "overpass-turbo",
  "copyright": "The data included in this document is from www.openstreetmap.org. The data is made available under ODbL.",
  "timestamp": "2026-03-15T13:16:53Z",
  "features": [
    {
      "type": "Feature",
      "properties": {
        "@id": "node/18085755",
        "addr:city": "High Peak",
        "addr:country": "GB",
        "addr:housenumber": "11",
        "addr:postcode": "SK23 0HH",
        "addr:street": "Market Street",
        "amenity": "pub",
        "fhrs:id": "1258903",
        "name": "The Royal Oak",
        "source:addr": "FHRS Open Data",
        "wikidata": "Q26380408"
      },
      "geometry": {
        "type": "Point",
        "coordinates": [
          -1.9153973,
          53.3231212
        ]
      },
      "id": "node/18085755"
    },
    {
      "type": "Feature",
      "properties": {
        "@id": "node/18085766",
        "addr:city": "High Peak",
        "addr:country": "GB",
        "addr:housenumber": "9",
        "addr:postcode": "SK23 0EN",
        "addr:street": "Market Place",
        "amenity": "pub",
        "fhrs:id": "1258712",
        "name": "The Roebuck",
        "source:addr": "FHRS Open Data",
        "tourism": "guest_house"
      },
      "geometry": {
        "type": "Point",
        "coordinates": [
          -1.9157781,
          53.3235505
        ]
      },
      "id": "node/18085766"
    },
    {
      "type": "Feature",
      "properties": {
        "@id": "node/18085799",
        "addr:city": "High Peak",
        "addr:country": "GB",
        "addr:postcode": "SK23 9SR",
        "addr:street": "Manchester Road",
        "addr:suburb": "Chapel-en-le-Frith",
        "amenity": "pub",
        "fhrs:id": "1258760",
        "name": "New Inn",
        "source:addr": "FHRS Open Data"
      },
      "geometry": {
        "type": "Point",
        "coordinates": [
          -1.9194502,
          53.3221444
        ]
      },
      "id": "node/18085799"
    },
    {
      "type": "Feature",
      "properties": {
        "@id": "node/18085955",
        "amenity": "pub",
        "name": "Kings Arms Hotel"
      },
      "geometry": {
        "type": "Point",
        "coordinates": [
          -1.9162935,
          53.3230874
        ]
      },
      "id": "node/18085955"
    },
    {
      "type": "Feature",
      "properties": {
        "@id": "node/18085956",
        "amenity": "pub",
        "created_by": "JOSM",
        "name": "The Dog"
      },
      "geometry": {
        "type": "Point",
        "coordinates": [
          -1.9157502,
          53.3230646
        ]
      },
      "id": "node/18085956"
    },
    {
      "type": "Feature",
      "properties": {
        "@id": "node/18086496",
        "addr:city": "High Peak",
        "addr:housename": "The Beehive Inn",
        "addr:postcode": "SK23 9UT",
        "addr:street": "Combs Road",
        "amenity": "pub",
        "fhrs:id": "1259051",
        "name": "The Beehive Inn"
      },
      "geometry": {
        "type": "Point",
        "coordinates": [
          -1.9392183,
          53.3040719
        ]
      },
      "id": "node/18086496"
    },
    {
      "type": "Feature",
      "properties": {
        "@id": "node/26348736",
        "addr:city": "Ashbourne",
        "addr:county": "Derbyshire",
        "addr:postcode": "DE6 2AT",
        "addr:street": "Spend Lane",
        "addr:village": "Thorpe",
        "amenity": "pub",
        "beer_garden": "yes",
        "car_park": "yes",
        "diet:vegan": "yes",
        "diet:vegetarian": "yes",
        "fhrs:id": "1627045",
        "food": "yes",
        "name": "Old Dog",
        "opening_hours": "Mo-Su 12:00-15:00,18:00-23:00",
        "opening_hours:food": "Mo-Sa 12:00-14:00, 19:00-21:00; Su 12:00-14:00, 19:00-20:30",
        "real_ale": "4",
        "source:addr": "FHRS Open Data"
      },
      "geometry": {
        "type": "Point",
        "coordinates": [
          -1.7585731,
          53.0511929
        ]
      },
      "id": "node/26348736"
    },
    {
      "type": "Feature",
      "properties": {
        "@id": "node/26420361",
        "addr:city": "Hope Valley",
        "addr:postcode": "S33 0AZ",
        "addr:street": "Ashopton Road",
        "addr:suburb": "Yorkshire Bridge",
        "amenity": "pub",
        "description:floor": "Tiled from the door to the bar",
        "fhrs:id": "1259068",
        "food": "yes",
        "name": "Yorkshire Bridge Inn",
        "real_ale": "Kelham Island Pale Rider, Copper Dragon 1816, among others",
        "source:addr": "FHRS Open Data"
      },
      "geometry": {
        "type": "Point",
        "coordinates": [
          -1.6988808,
          53.3624507
        ]
      },
      "id": "node/26420361"
    },
    {
      "type": "Feature",
      "properties": {
        "@id": "node/26421382",
        "addr:city": "High Peak",
        "addr:country": "GB",
        "addr:housenumber": "33-35",
        "addr:postcode": "SK23 7AA",
        "addr:street": "Market Street",
        "addr:suburb": "Whaley Bridge",
        "amenity": "pub",
        "contact:facebook": "https://www.facebook.com/TheRailwayWB/",
        "indoor_seating": "yes",
        "mobile": "+44 7394 546851",
        "name": "The Railway",
        "operator": "Robinsons",
        "outdoor_seating": "yes",
        "phone": "+44 1663 734296"
      },
      "geometry": {
        "type": "Point",
        "coordinates": [
          -1.984206,
          53.3297883
        ]
      },
      "id": "node/26421382"
    },
    {
      "type": "Feature",
      "properties": {
        "@id": "node/26841722",
        "addr:city": "Hope Valley",
        "addr:postcode": "S33 0AX",
        "addr:suburb": "Ashopton",
        "amenity": "pub",
        "fhrs:id": "1258690",
        "food": "yes",
        "name": "Ladybower Inn",
        "source:addr:postcode": "FHRS Open Data"
      },
      "geometry": {
        "type": "Point",
        "coordinates": [
          -1.6938089,
          53.3751937
        ]
      },
      "id": "node/26841722"
    },
    {
      "type": "Feature",
      "properties": {
        "@id": "node/26843711",
        "addr:city": "Hope Valley",
        "addr:postcode": "S33 0DY",
        "addr:street": "Main Road",
        "addr:suburb": "Bamford",
        "amenity": "pub",
        "brewery": "various",
        "fhrs:id": "1258649",
        "food": "yes",
        "microbrewery": "no",
        "name": "The Anglers",
        "opening_hours": "Mo-Tu closed, We-Fr 12:00-23:00, Sa-Su 10:00-23:00",
        "outdoor_seating": "yes",
        "payment:cards": "yes",
        "payment:cash": "no",
        "payment:contactless": "yes",
        "payment:credit_cards": "yes",
        "payment:debit_cards": "yes",
        "real_ale": "Mcmullen Country Bitter, Batemans Thirsty Work, Deauchars IPA",
        "real_fire": "yes",
        "toilets": "yes",
        "website": "https://www.anglers.rest/"
      },
      "geometry": {
        "type": "Point",
        "coordinates": [
          -1.6891087,
          53.3497937
        ]
      },
      "id": "node/26843711"
    },
    {
      "type": "Feature",
      "properties": {
        "@id": "node/52284895",
        "addr:postcode": "SK11 0QL",
        "amenity": "pub",
        "fhrs:id": "891446",
        "food": "yes",
        "name": "Wild Boar Inn",
        "real_ale": "Robinson's Unicorn",
        "source:addr": "FHRS Open Data"
      },
      "geometry": {
        "type": "Point",
        "coordinates": [
          -2.0618863,
          53.2015967
        ]
      },
      "id": "node/52284895"
    },
    {
      "type": "Feature",
      "properties": {
        "@id": "node/60068778",
        "amenity": "pub",
        "indoor_seating": "yes",
        "name": "The Goyt Inn",
        "opening_hours": "Mo 16:30-23:00; Tu,We 16:30-22:00; Th 16:30-22:30; Fr 16:30-23:00; Sa 14:00-23:00; Su 14:00-22:00",
        "outdoor_seating": "yes"
      },
      "geometry": {
        "type": "Point",
        "coordinates": [
          -1.983403,
          53.3302586
        ]
      },
      "id": "node/60068778"
    },
    {
      "type": "Feature",
      "properties": {
        "@id": "node/78459627",
        "amenity": "pub",
        "created_by": "JOSM",
        "name": "The Crown"
      },
      "geometry": {
        "type": "Point",
        "coordinates": [
          -1.9521394,
          53.4389104
        ]
      },
      "id": "node/78459627"
    },
    {
      "type": "Feature",
      "properties": {
        "@id": "node/104605891",
        "amenity": "pub",
        "created_by": "JOSM",
        "name": "Surrey Arms"
      },
      "geometry": {
        "type": "Point",
        "coordinates": [
          -1.9520914,
          53.4390403
        ]
      },
      "id": "node/104605891"
    },
    {
      "type": "Feature",
      "properties": {
        "@id": "node/130221149",
        "amenity": "pub",
        "name": "The Grapes"
      },
      "geometry": {
        "type": "Point",
        "coordinates": [
          -1.9627691,
          53.444092
        ]
      },
      "id": "node/130221149"
    },
    {
      "type": "Feature",
      "properties": {
        "@id": "node/131965646",
        "addr:housenumber": "35",
        "addr:postcode": "SK13 8NR",
        "addr:street": "Hague Street",
        "amenity": "pub",
        "check_date:opening_hours": "2022-01-25",
        "fhrs:id": "1259173",
        "name": "The Beehive",
        "opening_hours": "Mo-Th 17:00-23:00; Fr-Su 12:00-23:00",
        "smoking": "outside",
        "source:addr": "FHRS Open Data",
        "wheelchair": "limited"
      },
      "geometry": {
        "type": "Point",
        "coordinates": [
          -1.9456401,
          53.4364356
        ]
      },
      "id": "node/131965646"
    },
    {
      "type": "Feature",
      "properties": {
        "@id": "node/132948535",
        "amenity": "pub",
        "created_by": "JOSM",
        "name": "Prince of Wales"
      },
      "geometry": {
        "type": "Point",
        "coordinates": [
          -1.9438659,
          53.4433173
        ]
      },
      "id": "node/132948535"
    },
    {
      "type": "Feature",
      "properties": {
        "@id": "node/233186722",
        "addr:housenumber": "144",
        "addr:postcode": "SK13 8HJ",
        "addr:street": "High Street West",
        "amenity": "pub",
        "check_date": "2023-08-16",
        "diet:vegan": "only",
        "fhrs:id": "1258962",
        "microbrewery": "yes",
        "name": "The Globe",
        "real_ale": "yes",
        "source:addr": "FHRS Open Data"
      },
      "geometry": {
        "type": "Point",
        "coordinates": [
          -1.9566313,
          53.44354
        ]
      },
      "id": "node/233186722"
    },
    {
      "type": "Feature",
      "properties": {
        "@id": "node/233186734",
        "addr:city": "Glossop",
        "addr:county": "Derbyshire",
        "addr:housenumber": "76",
        "addr:postcode": "SK13 8BH",
        "addr:street": "High Street West",
        "amenity": "pub",
        "fhrs:id": "1523897",
        "name": "Corner Cupboard"
      },
      "geometry": {
        "type": "Point",
        "coordinates": [
          -1.9535388,
          53.4436487
        ]
      },
      "id": "node/233186734"
    },
    {
      "type": "Feature",
      "properties": {
        "@id": "node/233186743",
        "addr:housenumber": "67",
        "addr:postcode": "SK13 8AZ",
        "addr:street": "High Street West",
        "amenity": "pub",
        "fhrs:id": "1258819",
        "name": "The Oakwood",
        "source:addr": "FHRS Open Data",
        "wheelchair": "yes"
      },
      "geometry": {
        "type": "Point",
        "coordinates": [
          -1.9527555,
          53.4433787
        ]
      },
      "id": "node/233186743"
    },
    {
      "type": "Feature",
      "properties": {
        "@id": "node/243487012",
        "amenity": "pub",
        "created_by": "Potlatch 0.6c",
        "name": "Old Tup"
      },
      "geometry": {
        "type": "Point",
        "coordinates": [
          -1.9808288,
          53.4455418
        ]
      },
      "id": "node/243487012"
    },
    {
      "type": "Feature",
      "properties": {
        "@id": "node/243757565",
        "addr:postcode": "SK13 1NR",
        "addr:street": "Hadfield Road",
        "amenity": "pub",
        "fhrs:id": "1258951",
        "name": "The Anchor",
        "source:addr": "FHRS Open Data"
      },
      "geometry": {
        "type": "Point",
        "coordinates": [
          -1.9690965,
          53.4612002
        ]
      },
      "id": "node/243757565"
    },
    {
      "type": "Feature",
      "properties": {
        "@id": "node/245808217",
        "addr:city": "Hope Valley",
        "addr:postcode": "S33 8WG",
        "addr:street": "Castle Street",
        "addr:suburb": "Castleton",
        "amenity": "pub",
        "brand": "Vintage Inns",
        "brand:wikidata": "Q87067899",
        "check_date": "2024-08-20",
        "check_date:opening_hours": "2024-08-20",
        "contact:website": "https://www.vintageinn.co.uk/restaurants/midlands/thecastlecastleton",
        "fhrs:id": "1259076",
        "name": "The Castle",
        "opening_hours": "Mo-Su 08:00-23:00",
        "source:addr": "FHRS Open Data",
        "wikidata": "Q26388874"
      },
      "geometry": {
        "type": "Point",
        "coordinates": [
          -1.7765431,
          53.3429574
        ]
      },
      "id": "node/245808217"
    },
    {
      "type": "Feature",
      "properties": {
        "@id": "node/245808218",
        "addr:city": "Hope Valley",
        "addr:postcode": "S33 8WG",
        "addr:street": "Castle Street",
        "addr:suburb": "Castleton",
        "amenity": "pub",
        "check_date": "2025-08-16",
        "fhrs:id": "1258838",
        "name": "The George",
        "operator": "Charles Wells",
        "source:addr": "FHRS Open Data",
        "wikidata": "Q26380262"
      },
      "geometry": {
        "type": "Point",
        "coordinates": [
          -1.7764332,
          53.3425019
        ]
      },
      "id": "node/245808218"
    },
    {
      "type": "Feature",
      "properties": {
        "@id": "node/245808219",
        "accommodation": "yes",
        "addr:city": "Hope Valley",
        "addr:postcode": "S33 8WH",
        "addr:street": "Cross Street",
        "addr:suburb": "Castleton",
        "amenity": "pub",
        "check_date": "2025-08-16",
        "fhrs:id": "1259077",
        "floor:material": "stone",
        "food": "yes",
        "name": "The Bull's Head",
        "real_ale": "3 Robinsons",
        "real_fire": "yes",
        "source:addr": "FHRS Open Data",
        "toilets": "yes",
        "toilets:disabled": "yes"
      },
      "geometry": {
        "type": "Point",
        "coordinates": [
          -1.7763551,
          53.3432419
        ]
      },
      "id": "node/245808219"
    },
    {
      "type": "Feature",
      "properties": {
        "@id": "node/246550810",
        "addr:postcode": "SK13 8QY",
        "addr:street": "Sheffield Road",
        "amenity": "pub",
        "fhrs:id": "1258662",
        "name": "Royal Oak",
        "source:addr": "FHRS Open Data"
      },
      "geometry": {
        "type": "Point",
        "coordinates": [
          -1.9275956,
          53.4445633
        ]
      },
      "id": "node/246550810"
    },
    {
      "type": "Feature",
      "properties": {
        "@id": "node/248045292",
        "accommodation": "yes",
        "addr:city": "Buxton",
        "addr:postcode": "SK17 8QU",
        "addr:street": "Church Lane",
        "addr:village": "Litton",
        "amenity": "pub",
        "fhrs:id": "1751125",
        "name": "Red Lion Inn",
        "opening_hours": "Su 12:00-22:00; Mo-Sa 12:00-23:00",
        "phone": "+44 1298 871458",
        "real_ale": "yes",
        "website": "https://www.theredlionlitton.co.uk",
        "wikidata": "Q26452540"
      },
      "geometry": {
        "type": "Point",
        "coordinates": [
          -1.7563255,
          53.2735974
        ]
      },
      "id": "node/248045292"
    },
    {
      "type": "Feature",
      "properties": {
        "@id": "node/251982730",
        "addr:city": "Bakewell",
        "addr:postcode": "DE45 1SR",
        "addr:street": "Nether End",
        "addr:village": "Baslow",
        "amenity": "pub",
        "fhrs:id": "1908686",
        "name": "The Devonshire Arms",
        "phone": "+44 1246 582551",
        "website": "https://thedevonshirebaslow.com/"
      },
      "geometry": {
        "type": "Point",
        "coordinates": [
          -1.6133234,
          53.2459014
        ]
      },
      "id": "node/251982730"
    },
    {
      "type": "Feature",
      "properties": {
        "@id": "node/251985589",
        "addr:city": "Bakewell",
        "addr:postcode": "DE45 1SR",
        "addr:street": "Nether End",
        "addr:village": "Baslow",
        "amenity": "pub",
        "fhrs:id": "1626524",
        "food": "yes",
        "name": "The Wheatsheaf",
        "outdoor_area": "yes",
        "parking": "yes",
        "real_ale": "4 from Marstons"
      },
      "geometry": {
        "type": "Point",
        "coordinates": [
          -1.6124122,
          53.2465269
        ]
      },
      "id": "node/251985589"
    },
    {
      "type": "Feature",
      "properties": {
        "@id": "node/251986045",
        "addr:city": "Hope Valley",
        "addr:postcode": "S32 3XA",
        "addr:street": "Calver Bridge",
        "addr:suburb": "Curbar",
        "amenity": "pub",
        "fhrs:id": "1626905",
        "food": "yes",
        "name": "The Bridge Inn",
        "real_ale": "Greene King Abbot, Hardy and Hansons Kimberley, Back of the Net"
      },
      "geometry": {
        "type": "Point",
        "coordinates": [
          -1.6310557,
          53.2661742
        ]
      },
      "id": "node/251986045"
    },
    {
      "type": "Feature",
      "properties": {
        "@id": "node/251986258",
        "amenity": "pub",
        "name": "The Derwentwater Arms"
      },
      "geometry": {
        "type": "Point",
        "coordinates": [
          -1.6411023,
          53.268364
        ]
      },
      "id": "node/251986258"
    },
    {
      "type": "Feature",
      "properties": {
        "@id": "node/254949910",
        "addr:postcode": "SK17 8RW",
        "addr:village": "Wardlow Mires",
        "amenity": "pub",
        "fhrs:id": "1626843",
        "name": "Three Stags Heads",
        "real_ale": "Several from Abbeydale, including \"Black Lurcher\" house beer",
        "toilets:wheelchair": "no",
        "wheelchair": "no",
        "wikidata": "Q18162323",
        "wikipedia": "en:The Three Stags' Heads"
      },
      "geometry": {
        "type": "Point",
        "coordinates": [
          -1.730066,
          53.2771153
        ]
      },
      "id": "node/254949910"
    },
    {
      "type": "Feature",
      "properties": {
        "@id": "node/277779009",
        "addr:postcode": "SK10 5XE",
        "addr:street": "Church Lane",
        "amenity": "pub",
        "fhrs:id": "891464",
        "name": "The Robin Hood",
        "website": "www.robinhoodrainow.com"
      },
      "geometry": {
        "type": "Point",
        "coordinates": [
          -2.0729439,
          53.2829919
        ]
      },
      "id": "node/277779009"
    },
    {
      "type": "Feature",
      "properties": {
        "@id": "node/282357298",
        "accommodation": "yes",
        "addr:city": "Bakewell",
        "addr:postcode": "DE45 1WN",
        "addr:street": "Alport Lane",
        "addr:village": "Youlgrave",
        "amenity": "pub",
        "fhrs:id": "1669443",
        "floor:material": "stone",
        "food": "yes",
        "name": "George Hotel",
        "outdoor_seating": "yes",
        "real_ale": "Caledonian Flying Scotsman (may vary)"
      },
      "geometry": {
        "type": "Point",
        "coordinates": [
          -1.6846687,
          53.1762937
        ]
      },
      "id": "node/282357298"
    },
    {
      "type": "Feature",
      "properties": {
        "@id": "node/305916852",
        "amenity": "pub",
        "name": "The Chequers",
        "real_ale": "yes"
      },
      "geometry": {
        "type": "Point",
        "coordinates": [
          -1.6312423,
          53.2814117
        ]
      },
      "id": "node/305916852"
    },
    {
      "type": "Feature",
      "properties": {
        "@id": "node/325107316",
        "addr:city": "Ashbourne",
        "addr:postcode": "DE6 1LF",
        "addr:street": "Bradbourne Road",
        "addr:village": "Fenny Bentley",
        "amenity": "pub",
        "beer_garden": "yes",
        "car_park": "yes",
        "fhrs:id": "1626306",
        "food": "yes",
        "name": "Bentley Brook Inn",
        "opening_hours:food": "All Day",
        "outdoor_seating": "yes",
        "real_ale": "Marston's Pedigree, 1 or 2 other local beers",
        "source:opening_hours:food": "Sign",
        "website": "https://www.bentleybrookinn.co.uk/"
      },
      "geometry": {
        "type": "Point",
        "coordinates": [
          -1.7370723,
          53.0443151
        ]
      },
      "id": "node/325107316"
    },
    {
      "type": "Feature",
      "properties": {
        "@id": "node/336145788",
        "addr:postcode": "SK11 0BJ",
        "addr:street": "Buxton Road",
        "amenity": "pub",
        "fhrs:id": "891450",
        "name": "Rose and Crown",
        "website": "https://www.roseandcrownallgreave.co.uk/"
      },
      "geometry": {
        "type": "Point",
        "coordinates": [
          -2.0413111,
          53.1997797
        ]
      },
      "id": "node/336145788"
    },
    {
      "type": "Feature",
      "properties": {
        "@id": "node/365463636",
        "addr:city": "Ashbourne",
        "addr:county": "Derbyshire",
        "addr:postcode": "DE6 1QL",
        "addr:street": "The Green",
        "addr:village": "Parwich",
        "amenity": "pub",
        "beer_garden": "yes",
        "car_park": "yes",
        "fhrs:id": "1626139",
        "food": "sandwiches at least",
        "name": "Sycamore Inn",
        "opening_hours": "Mo-Su 12:00-14:00,19:00-21:00",
        "real_ale": "2 from Robinson's",
        "source:addr": "FHRS Open Data"
      },
      "geometry": {
        "type": "Point",
        "coordinates": [
          -1.7208724,
          53.0857178
        ]
      },
      "id": "node/365463636"
    },
    {
      "type": "Feature",
      "properties": {
        "@id": "node/382643812",
        "addr:city": "Matlock",
        "addr:postcode": "DE4 2DR",
        "addr:street": "Bank Top",
        "addr:village": "Winster",
        "amenity": "pub",
        "car_park": "yes",
        "fhrs:id": "1626210",
        "food": "yes",
        "name": "The Miners Standard",
        "phone": "+44 1629 650279",
        "real_ale": "Marstons,Greene King",
        "website": "http://www.theminersstandard.com/"
      },
      "geometry": {
        "type": "Point",
        "coordinates": [
          -1.6460544,
          53.1387591
        ]
      },
      "id": "node/382643812"
    },
    {
      "type": "Feature",
      "properties": {
        "@id": "node/383898359",
        "accommodation": "yes",
        "addr:city": "Buxton",
        "addr:country": "GB",
        "addr:postcode": "SK17 8NU",
        "addr:street": "Commericial Road",
        "addr:village": "Tideswell",
        "amenity": "pub",
        "brand": "Greene King",
        "brand:wikidata": "Q5564162",
        "ele": "291",
        "fhrs:id": "1892359",
        "food": "yes",
        "name": "George Inn",
        "note": "Greene king. No food pm.",
        "operator": "Greene King",
        "outdoor_seating": "yes",
        "real_ale": "yes",
        "source:postcode": "FHRS Open Data",
        "website": "https://www.thegeorgeinntideswell.co.uk/"
      },
      "geometry": {
        "type": "Point",
        "coordinates": [
          -1.7718674,
          53.2788279
        ]
      },
      "id": "node/383898359"
    },
    {
      "type": "Feature",
      "properties": {
        "@id": "node/383901212",
        "addr:city": "Buxton",
        "addr:postcode": "SK17 8JZ",
        "addr:street": "Queen Street",
        "addr:village": "Tideswell",
        "amenity": "pub",
        "ele": "287",
        "fhrs:id": "1626156",
        "name": "Horse and Jockey",
        "note": "Beer range varies.  No food pm.",
        "toilets:wheelchair": "no",
        "wheelchair": "no"
      },
      "geometry": {
        "type": "Point",
        "coordinates": [
          -1.7742526,
          53.2755843
        ]
      },
      "id": "node/383901212"
    },
    {
      "type": "Feature",
      "properties": {
        "@id": "node/386169316",
        "addr:city": "Hope Valley",
        "addr:postcode": "S32 5RG",
        "addr:street": "Water Lane",
        "addr:suburb": "Eyam",
        "amenity": "pub",
        "fhrs:id": "1626274",
        "name": "Miners Arms",
        "source:postcode": "FHRS Open Data"
      },
      "geometry": {
        "type": "Point",
        "coordinates": [
          -1.6706192,
          53.2845061
        ]
      },
      "id": "node/386169316"
    },
    {
      "type": "Feature",
      "properties": {
        "@id": "node/390376121",
        "accommodation": "yes",
        "addr:city": "Bakewell",
        "addr:postcode": "DE45 1UW",
        "addr:street": "Main Street",
        "addr:village": "Youlgrave",
        "amenity": "pub",
        "fhrs:id": "1626468",
        "food": "yes",
        "name": "Farmyard Inn",
        "parking": "yes",
        "website": "https://www.farmyardinnyoulgreave.co.uk/"
      },
      "geometry": {
        "type": "Point",
        "coordinates": [
          -1.6898941,
          53.1740655
        ]
      },
      "id": "node/390376121"
    },
    {
      "type": "Feature",
      "properties": {
        "@id": "node/390376128",
        "addr:city": "Bakewell",
        "addr:postcode": "DE45 1UR",
        "addr:street": "Fountain Square",
        "addr:village": "Youlgrave",
        "amenity": "pub",
        "brand": "Marston's",
        "brand:wikidata": "Q6773982",
        "email": "bullsheadyoulgrave@gmail.com",
        "fhrs:id": "1834489",
        "food": "yes",
        "name": "Bulls Head",
        "note": "More of a pub than a hotel",
        "opening_hours": "Mo-Th 17:00-23:00; Fr 17:00-00:00; Sa 12:00-00:00; Su 12:00-23:00",
        "outdoor_seating": "yes",
        "phone": "+44 1629 636307",
        "real_ale": "3 from Marston's",
        "website": "https://www.thebullsheadyoulgrave.co.uk/"
      },
      "geometry": {
        "type": "Point",
        "coordinates": [
          -1.6862137,
          53.1751867
        ]
      },
      "id": "node/390376128"
    },
    {
      "type": "Feature",
      "properties": {
        "@id": "node/409697298",
        "addr:city": "Buxton",
        "addr:postcode": "SK17 6BS",
        "addr:street": "Bridge Street",
        "amenity": "pub",
        "brewery": "yes",
        "fhrs:id": "1258748",
        "name": "The Railway",
        "opening_hours": "Su-Th 11:30-22:00; Fr,Sa 11:30-22:30",
        "operator": "Joseph Holt's Brewery",
        "phone": "+44 1298 71858",
        "real_ale": "yes",
        "smoking": "outside",
        "toilets": "yes",
        "toilets:wheelchair": "yes",
        "website": "https://www.joseph-holt.com/pubs/railway-buxton",
        "wheelchair": "yes",
        "wikidata": "Q10540942",
        "wikipedia": "en:Joseph Holt's Brewery"
      },
      "geometry": {
        "type": "Point",
        "coordinates": [
          -1.9077453,
          53.2597694
        ]
      },
      "id": "node/409697298"
    },
    {
      "type": "Feature",
      "properties": {
        "@id": "node/410871346",
        "addr:city": "Buxton",
        "addr:postcode": "SK17 0AL",
        "addr:street": "Market Place",
        "addr:village": "Hartington",
        "amenity": "pub",
        "fhrs:id": "1626229",
        "name": "Devonshire Arms",
        "wikidata": "Q26619534"
      },
      "geometry": {
        "type": "Point",
        "coordinates": [
          -1.8096755,
          53.1405233
        ]
      },
      "id": "node/410871346"
    },
    {
      "type": "Feature",
      "properties": {
        "@id": "node/411797134",
        "addr:city": "Buxton",
        "addr:postcode": "SK17 9AS",
        "addr:street": "Burlington Road",
        "amenity": "pub",
        "description": "Part of the Buckingham Hotel",
        "name": "Ramsay's Bar",
        "operator": "Free House",
        "real_ale": "yes"
      },
      "geometry": {
        "type": "Point",
        "coordinates": [
          -1.9217169,
          53.2575431
        ]
      },
      "id": "node/411797134"
    },
    {
      "type": "Feature",
      "properties": {
        "@id": "node/414090489",
        "accommodation": "yes",
        "addr:city": "Bakewell",
        "addr:postcode": "DE45 1JH",
        "addr:street": "The Square",
        "addr:village": "Monyash",
        "amenity": "pub",
        "contact:facebook": "https://www.facebook.com/thebullsheadmonyash",
        "floor:material": "tiles",
        "food": "yes",
        "internet_access": "wlan",
        "internet_access:fee": "no",
        "name": "The Bulls Head",
        "real_ale": "Black Sheep, Peak ales, Hobgoblin, +1, may vary",
        "toilets": "yes",
        "toilets:wheelchair": "yes",
        "website": "http://www.thebullsheadmonyash.co.uk/",
        "wheelchair": "limited"
      },
      "geometry": {
        "type": "Point",
        "coordinates": [
          -1.7765456,
          53.1959828
        ]
      },
      "id": "node/414090489"
    },
    {
      "type": "Feature",
      "properties": {
        "@id": "node/414097698",
        "addr:city": "Bakewell",
        "addr:postcode": "DE45 1DS",
        "addr:street": "Bridge Street",
        "amenity": "pub",
        "brand": "Marston's",
        "brand:wikidata": "Q6773982",
        "check_date": "2023-08-17",
        "contact:facebook": "https://www.facebook.com/bakewell",
        "contact:instagram": "https://www.instagram.com/wheatsheafbakewell",
        "fhrs:id": "1626397",
        "indoor_seating": "yes",
        "internet_access": "wlan",
        "internet_access:fee": "customers",
        "name": "The Wheatsheaf",
        "outdoor_seating": "yes",
        "payment:mastercard": "yes",
        "payment:visa": "yes",
        "website": "https://www.wheatsheaf-bakewell.co.uk/"
      },
      "geometry": {
        "type": "Point",
        "coordinates": [
          -1.6742164,
          53.2139209
        ]
      },
      "id": "node/414097698"
    },
    {
      "type": "Feature",
      "properties": {
        "@id": "node/414097699",
        "addr:city": "Bakewell",
        "addr:postcode": "DE45 1DS",
        "addr:street": "Market Street",
        "amenity": "pub",
        "fhrs:id": "1626355",
        "name": "The Peacock",
        "website": "http://www.peacockbakewell.com/",
        "wikidata": "Q26539587"
      },
      "geometry": {
        "type": "Point",
        "coordinates": [
          -1.6732943,
          53.2136672
        ]
      },
      "id": "node/414097699"
    },
    {
      "type": "Feature",
      "properties": {
        "@id": "node/414097700",
        "addr:city": "Bakewell",
        "addr:postcode": "DE45 1DS",
        "addr:street": "Bridge Street",
        "amenity": "pub",
        "brand": "Marston's",
        "brand:wikidata": "Q6773982",
        "check_date:opening_hours": "2023-08-14",
        "fhrs:id": "1626512",
        "name": "The Queens Arms",
        "opening_hours:signed": "no",
        "operator": "Marston's",
        "real_ale": "4 from Marston's",
        "wikidata": "Q26441005"
      },
      "geometry": {
        "type": "Point",
        "coordinates": [
          -1.673778,
          53.2139063
        ]
      },
      "id": "node/414097700"
    },
    {
      "type": "Feature",
      "properties": {
        "@id": "node/414097703",
        "addr:city": "Bakewell",
        "addr:postcode": "DE45 1BT",
        "addr:street": "Rutland Square",
        "amenity": "pub",
        "check_date:opening_hours": "2023-08-14",
        "fhrs:id": "1669444",
        "indoor_seating": "yes",
        "name": "The Red Lion",
        "note": "reverted as moved along with another pub which was moved in error.",
        "opening_hours:signed": "no",
        "outdoor_seating": "yes"
      },
      "geometry": {
        "type": "Point",
        "coordinates": [
          -1.6750055,
          53.2132022
        ]
      },
      "id": "node/414097703"
    },
    {
      "type": "Feature",
      "properties": {
        "@id": "node/414215474",
        "amenity": "pub",
        "name": "The Wheatsheaf"
      },
      "geometry": {
        "type": "Point",
        "coordinates": [
          -1.8878526,
          53.2984827
        ]
      },
      "id": "node/414215474"
    },
    {
      "type": "Feature",
      "properties": {
        "@id": "node/415794548",
        "addr:city": "Bakewell",
        "addr:postcode": "DE45 1DU",
        "addr:street": "Castle Street",
        "amenity": "pub",
        "brand": "Greene King",
        "brand:wikidata": "Q5564162",
        "fhrs:id": "1626127",
        "indoor_seating": "yes",
        "name": "The Castle Inn",
        "outdoor_seating": "yes",
        "website": "https://www.greeneking.co.uk/pubs/derbyshire/castle",
        "wikidata": "Q26441004"
      },
      "geometry": {
        "type": "Point",
        "coordinates": [
          -1.673659,
          53.2143675
        ]
      },
      "id": "node/415794548"
    },
    {
      "type": "Feature",
      "properties": {
        "@id": "node/416004365",
        "addr:city": "Hope Valley",
        "addr:postcode": "S32 5QR",
        "addr:street": "Main Road",
        "addr:suburb": "Foolow",
        "amenity": "pub",
        "fhrs:id": "1626948",
        "fixme": "Main Road might be a description",
        "name": "The Bulls Head Inn",
        "real_ale": "yes, 3-4",
        "source:postcode": "FHRS Open Data",
        "website": "https://www.thebullsheadfoolow.co.uk/"
      },
      "geometry": {
        "type": "Point",
        "coordinates": [
          -1.7141982,
          53.2878555
        ]
      },
      "id": "node/416004365"
    },
    {
      "type": "Feature",
      "properties": {
        "@id": "node/422649680",
        "addr:city": "Matlock",
        "addr:postcode": "DE4 2LW",
        "addr:street": "Main Road",
        "addr:village": "Stanton-in-Peak",
        "amenity": "pub",
        "dog": "yes",
        "fhrs:id": "1834492",
        "lunch": "We-Su 12:00-14:00",
        "name": "Flying Childers",
        "opening_hours": "Mo-Tu 19:00-23:00; We-Fr 12:00-14:00, 19:00-23:00; Sa-Su 12:00-15:00, 19:00-23:00",
        "outdoor_seating": "yes",
        "real_ale": "yes",
        "website": "https://flyingchilders.com",
        "wikidata": "Q26619629"
      },
      "geometry": {
        "type": "Point",
        "coordinates": [
          -1.6416433,
          53.1753378
        ]
      },
      "id": "node/422649680"
    },
    {
      "type": "Feature",
      "properties": {
        "@id": "node/435124797",
        "addr:postcode": "SK17 0JN",
        "addr:street": "Leek Road",
        "amenity": "pub",
        "car_park": "yes",
        "contact:facebook": "https://www.facebook.com/thegreyhoundinnwarslow",
        "description:floor": "tiles",
        "fhrs:id": "1259582",
        "food": "yes",
        "name": "Greyhound Inn",
        "tourism": "guest_house",
        "url": "https://thegreyhoundinnwarslow.co.uk/"
      },
      "geometry": {
        "type": "Point",
        "coordinates": [
          -1.8733096,
          53.126263
        ]
      },
      "id": "node/435124797"
    },
    {
      "type": "Feature",
      "properties": {
        "@id": "node/440696829",
        "amenity": "pub",
        "name": "Manifold Inn"
      },
      "geometry": {
        "type": "Point",
        "coordinates": [
          -1.8423168,
          53.1303789
        ]
      },
      "id": "node/440696829"
    },
    {
      "type": "Feature",
      "properties": {
        "@id": "node/460020604",
        "addr:city": "Buxton",
        "addr:postcode": "SK17 0NS",
        "addr:street": "High Street",
        "addr:village": "Longnor",
        "amenity": "pub",
        "fhrs:id": "1676349",
        "name": "Ye Olde Cheshire Cheese",
        "source": "survey",
        "source:addr": "FHRS Open Data",
        "toilets": "yes",
        "toilets:wheelchair": "yes",
        "wheelchair": "limited"
      },
      "geometry": {
        "type": "Point",
        "coordinates": [
          -1.8675511,
          53.1811993
        ]
      },
      "id": "node/460020604"
    },
    {
      "type": "Feature",
      "properties": {
        "@id": "node/473037154",
        "addr:city": "Bakewell",
        "addr:postcode": "DE45 1TZ",
        "addr:street": "Main Street",
        "addr:village": "Great Longstone",
        "amenity": "pub",
        "fhrs:id": "1626304",
        "name": "Crispin",
        "wikidata": "Q26597976"
      },
      "geometry": {
        "type": "Point",
        "coordinates": [
          -1.7040155,
          53.2430476
        ]
      },
      "id": "node/473037154"
    },
    {
      "type": "Feature",
      "properties": {
        "@id": "node/477979422",
        "addr:postcode": "ST13 7SP",
        "addr:street": "Church Lane",
        "amenity": "pub",
        "check_date": "2025-04-19",
        "fhrs:id": "1259618",
        "name": "The Black Lion Inn",
        "source:addr": "FHRS Open Data"
      },
      "geometry": {
        "type": "Point",
        "coordinates": [
          -1.8889233,
          53.1061129
        ]
      },
      "id": "node/477979422"
    },
    {
      "type": "Feature",
      "properties": {
        "@id": "node/489340295",
        "addr:city": "Hope Valley",
        "addr:postcode": "S33 8WJ",
        "addr:street": "How Lane",
        "addr:suburb": "Castleton",
        "alt_name": "Peak Hotel",
        "amenity": "pub",
        "fhrs:id": "1260420",
        "name": "The Peaks Hotel",
        "rooms": "4",
        "source:addr": "FHRS Open Data"
      },
      "geometry": {
        "type": "Point",
        "coordinates": [
          -1.7737958,
          53.3438652
        ]
      },
      "id": "node/489340295"
    },
    {
      "type": "Feature",
      "properties": {
        "@id": "node/502446982",
        "addr:city": "Buxton",
        "addr:postcode": "SK17 9SL",
        "addr:street": "Main Street",
        "addr:village": "Chelmorton",
        "amenity": "pub",
        "check_date:opening_hours": "2025-04-25",
        "ele": "364",
        "fhrs:id": "1626839",
        "name": "The Church Inn",
        "opening_hours:signed": "no"
      },
      "geometry": {
        "type": "Point",
        "coordinates": [
          -1.8292254,
          53.2293961
        ]
      },
      "id": "node/502446982"
    },
    {
      "type": "Feature",
      "properties": {
        "@id": "node/509340306",
        "addr:city": "Buxton",
        "addr:postcode": "SK17 8LD",
        "addr:street": "High Street",
        "addr:village": "Tideswell",
        "amenity": "pub",
        "ele": "285.88",
        "fhrs:id": "1626195",
        "name": "The Star Inn"
      },
      "geometry": {
        "type": "Point",
        "coordinates": [
          -1.7736428,
          53.2790266
        ]
      },
      "id": "node/509340306"
    },
    {
      "type": "Feature",
      "properties": {
        "@id": "node/528339161",
        "amenity": "pub",
        "ele": "305",
        "food": "yes",
        "name": "The Queen Anne",
        "parking": "yes",
        "real_ale": "Tetley Bitter, Clarks Classic Blonde",
        "toilets:wheelchair": "no",
        "wheelchair": "limited"
      },
      "geometry": {
        "type": "Point",
        "coordinates": [
          -1.7362846,
          53.297934
        ]
      },
      "id": "node/528339161"
    },
    {
      "type": "Feature",
      "properties": {
        "@id": "node/603086213",
        "addr:city": "Buxton",
        "addr:housenumber": "63",
        "addr:postcode": "SK17 6BJ",
        "addr:street": "Spring Gardens",
        "amenity": "pub",
        "contact:instagram": "https://www.instagram.com/miltons_tap/",
        "email": "manager@miltonstap.com",
        "fhrs:id": "1265183",
        "name": "Milton's Head",
        "official_name": "Miltons Tap",
        "old_fhrs:id": "1259171",
        "operator": "Punch Taverns",
        "phone": "+44 1298 24733",
        "real_ale": "yes",
        "website": "https://www.miltonstap.com/",
        "wheelchair": "no",
        "wikidata": "Q130544359"
      },
      "geometry": {
        "type": "Point",
        "coordinates": [
          -1.9104273,
          53.2594019
        ]
      },
      "id": "node/603086213"
    },
    {
      "type": "Feature",
      "properties": {
        "@id": "node/618436558",
        "accommodation": "yes",
        "addr:city": "Hope Valley",
        "addr:postcode": "S33 9JQ",
        "addr:street": "Small Dale",
        "addr:village": "Bradwell",
        "amenity": "pub",
        "fhrs:id": "1892363",
        "food": "yes",
        "name": "Ye Old Bowling Green Inn",
        "outdoor_seating": "yes",
        "website": "https://www.great-british-pubs.co.uk/locations/east-and-west-midlands/derbyshire/hope-valley/ye-olde-bowling-green-bradwell"
      },
      "geometry": {
        "type": "Point",
        "coordinates": [
          -1.7456361,
          53.3307451
        ]
      },
      "id": "node/618436558"
    },
    {
      "type": "Feature",
      "properties": {
        "@id": "node/618438484",
        "addr:city": "Buxton",
        "addr:postcode": "SK17 8RB",
        "addr:street": "Washhouse Bottom",
        "addr:village": "Tideswell",
        "amenity": "pub",
        "fhrs:id": "1626345",
        "name": "Anchor Inn",
        "source:addr": "FHRS Open Data",
        "website": "https://www.theanchortideswell.co.uk/",
        "wheelchair": "yes"
      },
      "geometry": {
        "type": "Point",
        "coordinates": [
          -1.7618188,
          53.2836114
        ]
      },
      "id": "node/618438484"
    },
    {
      "type": "Feature",
      "properties": {
        "@id": "node/618698593",
        "addr:city": "Buxton",
        "addr:housenumber": "1",
        "addr:postcode": "SK17 7EN",
        "addr:street": "Town End",
        "alt_name": "19th Hole",
        "amenity": "pub",
        "brand": "Marston's",
        "brand:wikidata": "Q6773982",
        "fhrs:id": "1848933",
        "name": "Nineteenth Hole",
        "operator": "Marston's",
        "real_ale": "yes",
        "toilets:wheelchair": "no",
        "website": "https://www.nineteenthholefairfield.co.uk/",
        "wheelchair": "no"
      },
      "geometry": {
        "type": "Point",
        "coordinates": [
          -1.8964932,
          53.2641054
        ]
      },
      "id": "node/618698593"
    },
    {
      "type": "Feature",
      "properties": {
        "@id": "node/618703517",
        "addr:city": "Buxton",
        "addr:housename": "Old Court House",
        "addr:postcode": "SK17 6AY",
        "addr:street": "George Street",
        "addr:unit": "11-16",
        "alt_name": "53 Degrees @ Buxton Brewery Tap House",
        "amenity": "pub",
        "fhrs:id": "1669062",
        "food": "yes",
        "name": "Buxton Tap House",
        "old_name": "Project X",
        "operator": "Buxton Brewery Company Limited",
        "real_ale": "yes",
        "wheelchair": "yes"
      },
      "geometry": {
        "type": "Point",
        "coordinates": [
          -1.9152782,
          53.2590704
        ]
      },
      "id": "node/618703517"
    },
    {
      "type": "Feature",
      "properties": {
        "@id": "node/618711673",
        "addr:city": "Buxton",
        "addr:housenumber": "103",
        "addr:postcode": "SK17 9NT",
        "addr:street": "London Road",
        "amenity": "pub",
        "brand": "Marston's",
        "brand:wikidata": "Q6773982",
        "contact:facebook": "https://www.facebook.com/people/The-Blazing-Rag/100057512916814/",
        "fhrs:id": "1903724",
        "name": "Blazing Rag",
        "operator": "Marston's",
        "real_ale": "yes",
        "toilets:wheelchair": "no",
        "wheelchair": "no"
      },
      "geometry": {
        "type": "Point",
        "coordinates": [
          -1.91123,
          53.2512206
        ]
      },
      "id": "node/618711673"
    },
    {
      "type": "Feature",
      "properties": {
        "@id": "node/627838232",
        "amenity": "pub",
        "name": "Printer's Arms",
        "opening_hours": "Tu-Th 17:00-21:00; Fr,Sa 16:00-22:00; Su 16:00-21:00; Mo off"
      },
      "geometry": {
        "type": "Point",
        "coordinates": [
          -1.985323,
          53.3791529
        ]
      },
      "id": "node/627838232"
    },
    {
      "type": "Feature",
      "properties": {
        "@id": "node/671845894",
        "addr:city": "Hope Valley",
        "addr:postcode": "S33 8WH",
        "addr:street": "Cross Street",
        "addr:suburb": "Castleton",
        "amenity": "pub",
        "fhrs:id": "1259150",
        "name": "Ye Olde Nag's Head Hotel",
        "source:addr": "FHRS Open Data"
      },
      "geometry": {
        "type": "Point",
        "coordinates": [
          -1.7754817,
          53.3430352
        ]
      },
      "id": "node/671845894"
    },
    {
      "type": "Feature",
      "properties": {
        "@id": "node/684459149",
        "addr:postcode": "SK17 0LL",
        "addr:street": "Moor Road",
        "amenity": "pub",
        "fhrs:id": "1259792",
        "food": "yes",
        "name": "Ye Olde Butchers Arms",
        "parking": "yes",
        "real_ale": "House beer (rebranded Tiger), 1 guest",
        "real_fire": "yes",
        "source:addr": "FHRS Open Data"
      },
      "geometry": {
        "type": "Point",
        "coordinates": [
          -1.8803854,
          53.1508043
        ]
      },
      "id": "node/684459149"
    },
    {
      "type": "Feature",
      "properties": {
        "@id": "node/756685374",
        "addr:city": "Ashbourne",
        "addr:county": "Derbyshire",
        "addr:postcode": "DE6 1LB",
        "addr:street": "Ashbourne Road",
        "addr:village": "Fenny Bentley",
        "amenity": "pub",
        "description:floor": "stone",
        "ele": "133.7480469",
        "fhrs:id": "1626926",
        "food": "yes",
        "name": "Coach and Horses",
        "real_ale": "Pedigree, Abbeydale Moonshine (varies)",
        "source:addr": "FHRS Open Data"
      },
      "geometry": {
        "type": "Point",
        "coordinates": [
          -1.7393275,
          53.0473325
        ]
      },
      "id": "node/756685374"
    },
    {
      "type": "Feature",
      "properties": {
        "@id": "node/760115069",
        "amenity": "pub",
        "ele": "279.8673096",
        "food": "yes",
        "name": "Jervis Arms",
        "real_ale": "6x, Titanic Iceberg +4 others (varies)"
      },
      "geometry": {
        "type": "Point",
        "coordinates": [
          -1.9265793,
          53.0939874
        ]
      },
      "id": "node/760115069"
    },
    {
      "type": "Feature",
      "properties": {
        "@id": "node/763653872",
        "amenity": "pub",
        "description:floor": "tiles",
        "ele": "211",
        "name": "The Lazy Trout",
        "operator": "Freehouse",
        "outdoor_seating": "yes",
        "parking": "yes",
        "real_ale": "2 from marstons 2 local"
      },
      "geometry": {
        "type": "Point",
        "coordinates": [
          -2.0161318,
          53.1440233
        ]
      },
      "id": "node/763653872"
    },
    {
      "type": "Feature",
      "properties": {
        "@id": "node/763654463",
        "amenity": "pub",
        "ele": "254.1523438",
        "name": "Three Horseshoes Inn"
      },
      "geometry": {
        "type": "Point",
        "coordinates": [
          -1.9881887,
          53.1359121
        ]
      },
      "id": "node/763654463"
    },
    {
      "type": "Feature",
      "properties": {
        "@id": "node/848397869",
        "amenity": "pub",
        "description:floor": "stone",
        "ele": "466",
        "food": "yes",
        "internet_access": "wlan",
        "name": "The Knights' Table",
        "old_name": "Travellers Rest",
        "opening_hours": "Tu-Su 12:00-23:00",
        "operator": "Freehouse",
        "outdoor_seating": "yes",
        "parking": "yes",
        "real_ale": "1 from Leatherbritches, 1 from Black Sheep (may vary)",
        "source:food": "customer"
      },
      "geometry": {
        "type": "Point",
        "coordinates": [
          -1.9532549,
          53.2075626
        ]
      },
      "id": "node/848397869"
    },
    {
      "type": "Feature",
      "properties": {
        "@id": "node/849741647",
        "amenity": "pub",
        "name": "The George Hotel"
      },
      "geometry": {
        "type": "Point",
        "coordinates": [
          -1.948306,
          53.444348
        ]
      },
      "id": "node/849741647"
    },
    {
      "type": "Feature",
      "properties": {
        "@id": "node/864022838",
        "amenity": "pub",
        "car_park": "yes",
        "description:floor": "stone",
        "name": "The New Inn",
        "operator": "Freehouse",
        "real_ale": "Storm Bosley Cloud (probably a varying guest)"
      },
      "geometry": {
        "type": "Point",
        "coordinates": [
          -1.9637269,
          53.2017452
        ]
      },
      "id": "node/864022838"
    },
    {
      "type": "Feature",
      "properties": {
        "@id": "node/898247765",
        "amenity": "pub",
        "ele": "187.5814209",
        "name": "White Hart",
        "note:real_ale": "On all the time?",
        "real_ale": "Greene King IPA, Morland, Abbot",
        "wikidata": "Q26403693"
      },
      "geometry": {
        "type": "Point",
        "coordinates": [
          -1.7420647,
          53.3271574
        ]
      },
      "id": "node/898247765"
    },
    {
      "type": "Feature",
      "properties": {
        "@id": "node/938649801",
        "addr:postcode": "SK17 9UD",
        "addr:street": "Main Street",
        "addr:village": "Taddington",
        "amenity": "pub",
        "car_park": "yes",
        "fhrs:id": "1626138",
        "floor:material": "carpet",
        "food": "yes",
        "internet_access": "wlan",
        "internet_access:fee": "no",
        "name": "Queens Arms",
        "note": "floor is lounge",
        "real_ale": "Barnsley Bitter, 2 from Peak Ales (may vary)",
        "real_fire": "yes",
        "toilets:wheelchair": "no",
        "website": "http://queensarmstaddington.com/",
        "wheelchair": "no"
      },
      "geometry": {
        "type": "Point",
        "coordinates": [
          -1.7840101,
          53.2363172
        ]
      },
      "id": "node/938649801"
    },
    {
      "type": "Feature",
      "properties": {
        "@id": "node/939130344",
        "accommodation": "yes",
        "addr:city": "Bakewell",
        "addr:postcode": "DE45 1EP",
        "addr:street": "Haddon Road",
        "amenity": "pub",
        "brand": "Robinsons",
        "brand:wikidata": "Q7353116",
        "brewery": "Robinsons",
        "contact:facebook": "https://www.facebook.com/TheMannersBakewell",
        "fhrs:id": "1813309",
        "food": "yes",
        "indoor_seating": "yes",
        "name": "The Manners",
        "opening_hours": "Su-Th 12:00-22:00; Fr-Sa 12:00-23:00",
        "operator": "Robinsons",
        "operator:wikidata": "Q7353116",
        "outdoor_seating": "yes",
        "real_ale": "Robinsons",
        "source": "survey",
        "tourism": "guest_house",
        "website": "https://www.robinsonsbrewery.com/pubs/the-manners-bakewell/"
      },
      "geometry": {
        "type": "Point",
        "coordinates": [
          -1.6742838,
          53.2110896
        ]
      },
      "id": "node/939130344"
    },
    {
      "type": "Feature",
      "properties": {
        "@id": "node/1440546692",
        "addr:postcode": "SK13 7AA",
        "addr:street": "Bernard Street",
        "amenity": "pub",
        "brewery": "yes",
        "fhrs:id": "1698948",
        "name": "Victoria Lounge",
        "outdoor_seating": "yes",
        "phone": "+44 1457 368424",
        "source:addr": "FHRS Open Data"
      },
      "geometry": {
        "type": "Point",
        "coordinates": [
          -1.9508038,
          53.4438054
        ]
      },
      "id": "node/1440546692"
    },
    {
      "type": "Feature",
      "properties": {
        "@id": "node/1968610414",
        "alt_name": "The Frenny",
        "amenity": "pub",
        "name": "The Friendship"
      },
      "geometry": {
        "type": "Point",
        "coordinates": [
          -1.9531962,
          53.4446583
        ]
      },
      "id": "node/1968610414"
    },
    {
      "type": "Feature",
      "properties": {
        "@id": "node/1969057070",
        "addr:postcode": "SK13 7RS",
        "addr:street": "Wellgate",
        "amenity": "pub",
        "check_date": "2024-02-08",
        "cuisine": "local",
        "fhrs:id": "1258844",
        "internet_access": "wlan",
        "name": "The Wheatsheaf",
        "source:addr": "FHRS Open Data"
      },
      "geometry": {
        "type": "Point",
        "coordinates": [
          -1.9386759,
          53.4508224
        ]
      },
      "id": "node/1969057070"
    },
    {
      "type": "Feature",
      "properties": {
        "@id": "node/1969058884",
        "addr:housenumber": "102",
        "addr:postcode": "SK13 7RN",
        "addr:street": "Church Street",
        "amenity": "pub",
        "check_date": "2024-02-08",
        "fhrs:id": "1258856",
        "name": "The Bull's Head",
        "source:addr": "FHRS Open Data",
        "wikidata": "Q26664050"
      },
      "geometry": {
        "type": "Point",
        "coordinates": [
          -1.9391064,
          53.4506922
        ]
      },
      "id": "node/1969058884"
    },
    {
      "type": "Feature",
      "properties": {
        "@id": "node/2066385385",
        "accommodation": "yes",
        "addr:housenumber": "6-12",
        "addr:postcode": "SK13 1EX",
        "addr:street": "Temple Street",
        "amenity": "pub",
        "check_date": "2024-02-10",
        "fhrs:id": "1259003",
        "food": "yes",
        "name": "Peels Arms",
        "real_ale": "yes",
        "source": "survey",
        "source:addr": "FHRS Open Data"
      },
      "geometry": {
        "type": "Point",
        "coordinates": [
          -1.9557491,
          53.4632205
        ]
      },
      "id": "node/2066385385"
    },
    {
      "type": "Feature",
      "properties": {
        "@id": "node/2324083929",
        "addr:city": "Glossop",
        "addr:county": "Derbyshire",
        "addr:housename": "Howard Town Shopping Park",
        "addr:postcode": "SK13 8HS",
        "addr:street": "Victoria Street",
        "addr:unit": "11",
        "amenity": "pub",
        "brand": "Wetherspoon",
        "brand:wikidata": "Q6109362",
        "brand:wikipedia": "en:Wetherspoons",
        "breakfast": "Mo,Tu,We,Th,Su 07:00-12:00;Fr,Sa 07:00-12:00",
        "brewery": "various",
        "building": "yes",
        "contact:phone": "+44 1457 890070",
        "diet:vegan": "yes",
        "diet:vegetarian": "yes",
        "dog": "no",
        "fhrs:authority": "High Peak",
        "fhrs:confidence_management": "0",
        "fhrs:hygiene": "5",
        "fhrs:id": "1259238",
        "fhrs:local_authority_id": "96455",
        "fhrs:rating": "5",
        "fhrs:rating_date": "2021-10-11T00:00:00",
        "fhrs:structural": "0",
        "food": "yes",
        "internet_access": "wlan",
        "internet_access:fee": "no",
        "name": "The Smithy Fold",
        "note": "Has TV screens",
        "opening_hours": "Mo,Tu,We,Th,Su 07:00-24:00; Fr,Sa 07:00-25:00",
        "outdoor_seating": "yes",
        "payment:cash": "yes",
        "payment:credit_cards": "yes",
        "payment:debit_cards": "yes",
        "real_ale": "yes",
        "real_cider": "yes",
        "source:fhrs": "FHRS Open Data",
        "source:website": "https://www.jdwetherspoon.com/pubs/all-pubs/england/derbyshire/the-smithy-fold-glossop",
        "toilets": "yes",
        "toilets:access": "customers",
        "toilets:wheelchair": "yes",
        "website": "https://www.jdwetherspoon.com/pubs/all-pubs/england/derbyshire/the-smithy-fold-glossop",
        "website:menu": "https://order.jdwetherspoon.com/venue/jdw/6416/menus",
        "wheelchair": "yes"
      },
      "geometry": {
        "type": "Point",
        "coordinates": [
          -1.9487993,
          53.4425955
        ]
      },
      "id": "node/2324083929"
    },
    {
      "type": "Feature",
      "properties": {
        "@id": "node/2364076348",
        "addr:city": "Hope Valley",
        "addr:postcode": "S32 4TL",
        "addr:street": "High Street",
        "addr:suburb": "Stoney Middleton",
        "amenity": "pub",
        "fhrs:id": "1626251",
        "internet_access": "wlan",
        "name": "The Moon Inn",
        "tourism": "guest_house",
        "website": "http://www.themooninnstoneymiddleton.co.uk/"
      },
      "geometry": {
        "type": "Point",
        "coordinates": [
          -1.6554444,
          53.275107
        ]
      },
      "id": "node/2364076348"
    },
    {
      "type": "Feature",
      "properties": {
        "@id": "node/3059630699",
        "addr:city": "Buxton",
        "addr:housenumber": "3",
        "addr:postcode": "SK17 6HX",
        "addr:street": "Chapel Street",
        "amenity": "pub",
        "contact:facebook": "https://www.facebook.com/people/The-Ale-Stop/100063725103155/",
        "fhrs:id": "1419319",
        "name": "The Ale Stop",
        "note": "\"First micropub in the High Peak\" but is perhaps a little larger than the average micropub",
        "old_fhrs:id": "739156",
        "pub": "micropub",
        "real_ale": "yes",
        "smoking": "outside"
      },
      "geometry": {
        "type": "Point",
        "coordinates": [
          -1.9156858,
          53.2552381
        ]
      },
      "id": "node/3059630699"
    },
    {
      "type": "Feature",
      "properties": {
        "@id": "node/3362045361",
        "addr:city": "Buxton",
        "addr:housename": "Cavendish House",
        "addr:postcode": "SK17 0AW",
        "addr:street": "Church Street",
        "addr:village": "Hartington",
        "amenity": "pub",
        "fhrs:id": "1656411",
        "name": "Royal British Legion"
      },
      "geometry": {
        "type": "Point",
        "coordinates": [
          -1.8092841,
          53.1411737
        ]
      },
      "id": "node/3362045361"
    },
    {
      "type": "Feature",
      "properties": {
        "@id": "node/3856490479",
        "addr:city": "Bakewell",
        "addr:postcode": "DE45 1UL",
        "addr:street": "High Street",
        "addr:village": "Pilsley",
        "amenity": "pub",
        "fhrs:id": "1626487",
        "name": "The Devonshire Arms",
        "outdoor_seating": "yes"
      },
      "geometry": {
        "type": "Point",
        "coordinates": [
          -1.6408308,
          53.235929
        ]
      },
      "id": "node/3856490479"
    },
    {
      "type": "Feature",
      "properties": {
        "@id": "node/4974240421",
        "addr:city": "Buxton",
        "addr:housenumber": "5-5a",
        "addr:postcode": "SK17 6ET",
        "addr:street": "High Street",
        "amenity": "pub",
        "diet:vegan": "no",
        "diet:vegetarian": "yes",
        "fhrs:id": "1339744",
        "name": "High Stakes",
        "note": "\"bar/eatery\" - could be described as a pub or as a cafe",
        "old_fhrs:id": "1258719",
        "real_ale": "yes",
        "website": "http://www.gilbertsbuxton.com/"
      },
      "geometry": {
        "type": "Point",
        "coordinates": [
          -1.9150314,
          53.2552783
        ]
      },
      "id": "node/4974240421"
    },
    {
      "type": "Feature",
      "properties": {
        "@id": "node/6210146923",
        "addr:city": "Hadfield",
        "addr:postcode": "SK13 1AA",
        "addr:street": "Station Approach",
        "amenity": "pub",
        "food": "yes",
        "name": "Station Wine Bar",
        "old_name": "Edwards Wine Bar",
        "outdoor_seating": "yes",
        "smoking": "outside"
      },
      "geometry": {
        "type": "Point",
        "coordinates": [
          -1.9656662,
          53.4608286
        ]
      },
      "id": "node/6210146923"
    },
    {
      "type": "Feature",
      "properties": {
        "@id": "node/10978228105",
        "addr:postcode": "SK17 8RT",
        "amenity": "pub",
        "name": "The Blind Bull",
        "website": "https://www.theblindbull.co.uk/"
      },
      "geometry": {
        "type": "Point",
        "coordinates": [
          -1.7545327,
          53.3038045
        ]
      },
      "id": "node/10978228105"
    },
    {
      "type": "Feature",
      "properties": {
        "@id": "node/11118427856",
        "addr:city": "Bakewell",
        "addr:parentstreet": "Buxton Road",
        "addr:place": "Rutland Buildings",
        "addr:postcode": "DE45 1BZ",
        "addr:unit": "1-2",
        "amenity": "pub",
        "fhrs:id": "1626686",
        "name": "Joiners Arms",
        "opening_hours": "Mo-Th 12:00-23:00, Fr,Sa 12:00-24:00, Su 12:00-22:00; PH off",
        "pub": "micropub",
        "real_ale": "yes"
      },
      "geometry": {
        "type": "Point",
        "coordinates": [
          -1.67627,
          53.2132574
        ]
      },
      "id": "node/11118427856"
    },
    {
      "type": "Feature",
      "properties": {
        "@id": "node/12732147995",
        "addr:city": "Glossop",
        "addr:housenumber": "61",
        "addr:postcode": "SK13 8AZ",
        "addr:street": "High Street West",
        "amenity": "pub",
        "fhrs:id": "1698944",
        "name": "Meehan's",
        "pub": "irish"
      },
      "geometry": {
        "type": "Point",
        "coordinates": [
          -1.9522769,
          53.4433286
        ]
      },
      "id": "node/12732147995"
    },
    {
      "type": "Feature",
      "properties": {
        "@id": "node/13151614437",
        "amenity": "pub",
        "name": "The Old Cell Ale Bar"
      },
      "geometry": {
        "type": "Point",
        "coordinates": [
          -1.9152974,
          53.3236233
        ]
      },
      "id": "node/13151614437"
    },
    {
      "type": "Feature",
      "properties": {
        "@id": "node/13151615784",
        "amenity": "pub",
        "name": "Shoulder of Mutton"
      },
      "geometry": {
        "type": "Point",
        "coordinates": [
          -1.9094272,
          53.3248999
        ]
      },
      "id": "node/13151615784"
    },
    {
      "type": "Feature",
      "properties": {
        "@id": "node/13170634122",
        "amenity": "pub",
        "name": "Thornbridge Brewery Tap"
      },
      "geometry": {
        "type": "Point",
        "coordinates": [
          -1.685036,
          53.219553
        ]
      },
      "id": "node/13170634122"
    }
  ]
}